SPOT 6                  
1 38755U 12047A   26197.83402060 -.00000024  00000+0  46094-5 0  9994
2 38755  98.2109 264.7936 0001116  86.9603 273.1724 14.58538789737378
SPOT 7                  
1 40053U 14034A   26197.83707400  .00000155  00000+0  40870-4 0  9991
2 40053  98.0615 259.5625 0001587  94.2421 265.8961 14.60981533641468
