{"fetched_at":"2026-07-17T06:38:38.141Z","source":"https://celestrak.org/NORAD/elements/gp.php?NAME=SPOT&FORMAT=JSON","constellation":"spot","records":[{"OBJECT_NAME":"SPOT 6","OBJECT_ID":"2012-047A","EPOCH":"2026-07-16T20:00:59.379840","CLASSIFICATION_TYPE":"U","MEAN_MOTION":14.58538789,"ECCENTRICITY":0.0001116,"INCLINATION":98.2109,"RA_OF_ASC_NODE":264.7936,"ARG_OF_PERICENTER":86.9603,"MEAN_ANOMALY":273.1724,"EPHEMERIS_TYPE":0,"NORAD_CAT_ID":38755,"ELEMENT_SET_NO":999,"REV_AT_EPOCH":73737,"BSTAR":0.0000046094,"MEAN_MOTION_DOT":-2.4e-7,"MEAN_MOTION_DDOT":0},{"OBJECT_NAME":"SPOT 7","OBJECT_ID":"2014-034A","EPOCH":"2026-07-16T20:05:23.193600","CLASSIFICATION_TYPE":"U","MEAN_MOTION":14.60981533,"ECCENTRICITY":0.0001587,"INCLINATION":98.0615,"RA_OF_ASC_NODE":259.5625,"ARG_OF_PERICENTER":94.2421,"MEAN_ANOMALY":265.8961,"EPHEMERIS_TYPE":0,"NORAD_CAT_ID":40053,"ELEMENT_SET_NO":999,"REV_AT_EPOCH":64146,"BSTAR":0.00004087,"MEAN_MOTION_DOT":0.00000155,"MEAN_MOTION_DDOT":0}]}
